0 CRRES DEB (CANISTER)
1 21594U 90065K   13279.67762903 -.00000032  00000-0  30799-3 0  4591
2 21594 016.8215 172.0984 7048698 185.2989 010.2896 02.44124329195025
0 CRRES DEB (CANISTER)
1 21594U 90065K   13282.95780568 -.00000130  00000-0  36724-3 0  4608
2 21594 016.8223 170.7458 7048695 187.8190 013.0430 02.44124760195107
0 CRRES DEB (CANISTER)
1 21594U 90065K   13286.78578792 -.00000372  00000-0 -37645-3 0  4610
2 21594 016.8318 169.2561 7048030 190.6553 137.2357 02.44124465195196
0 CRRES DEB (CANISTER)
1 21594U 90065K   13287.03109914 -.00000232  00000-0  43027-3 0  4621
2 21594 016.8228 169.0672 7048563 190.9473 352.8218 02.44125392195205
0 CRRES DEB (CANISTER)
1 21594U 90065K   13289.08203078 -.00000161  00000-0  42765-3 0  4634
2 21594 016.8229 168.2239 7048517 192.5197 355.2705 02.44125914195259
0 CRRES DEB (CANISTER)
1 21594U 90065K   13293.16750907 -.00000093  00000-0  27500-4 0  4642
2 21594 016.8224 166.5441 7048571 195.6512 345.7739 02.44127252195354
